[{"OBJECT_NAME":"STARLINK-3232","OBJECT_ID":"2022-001G","EPOCH":"2026-01-19T09:29:11.199264","MEAN_MOTION":15.08843524,"ECCENTRICITY":0.00014077,"INCLINATION":53.2194,"RA_OF_ASC_NODE":20.413,"ARG_OF_PERICENTER":91.6505,"MEAN_ANOMALY":268.4649,"EPHEMERIS_TYPE":0,"CLASSIFICATION_TYPE":"U","NORAD_CAT_ID":50809,"ELEMENT_SET_NO":999,"REV_AT_EPOCH":22310,"BSTAR":6.8322655e-5,"MEAN_MOTION_DOT":8.0e-6,"MEAN_MOTION_DDOT":0},{"OBJECT_NAME":"STARLINK-3338","OBJECT_ID":"2022-001K","EPOCH":"2026-01-19T16:27:51.220800","MEAN_MOTION":15.08836581,"ECCENTRICITY":0.00013672,"INCLINATION":53.219,"RA_OF_ASC_NODE":19.2119,"ARG_OF_PERICENTER":90.7306,"MEAN_ANOMALY":269.3843,"EPHEMERIS_TYPE":0,"CLASSIFICATION_TYPE":"U","NORAD_CAT_ID":50812,"ELEMENT_SET_NO":999,"REV_AT_EPOCH":22314,"BSTAR":1.1886083e-5,"MEAN_MOTION_DOT":-9.9e-7,"MEAN_MOTION_DDOT":0},{"OBJECT_NAME":"STARLINK-3349","OBJECT_ID":"2022-001L","EPOCH":"2026-01-19T21:56:10.206528","MEAN_MOTION":15.30982904,"ECCENTRICITY":0.00048641,"INCLINATION":53.2134,"RA_OF_ASC_NODE":350.8721,"ARG_OF_PERICENTER":121.7673,"MEAN_ANOMALY":238.3803,"EPHEMERIS_TYPE":0,"CLASSIFICATION_TYPE":"U","NORAD_CAT_ID":50813,"ELEMENT_SET_NO":999,"REV_AT_EPOCH":22357,"BSTAR":0.0024303243,"MEAN_MOTION_DOT":0.00074139,"MEAN_MOTION_DDOT":0},{"OBJECT_NAME":"STARLINK-3324","OBJECT_ID":"2022-001M","EPOCH":"2026-01-19T22:53:20.849856","MEAN_MOTION":15.0884155,"ECCENTRICITY":0.00014514,"INCLINATION":53.2189,"RA_OF_ASC_NODE":27.9071,"ARG_OF_PERICENTER":88.5773,"MEAN_ANOMALY":271.5386,"EPHEMERIS_TYPE":0,"CLASSIFICATION_TYPE":"U","NORAD_CAT_ID":50814,"ELEMENT_SET_NO":999,"REV_AT_EPOCH":22305,"BSTAR":3.0187948e-5,"MEAN_MOTION_DOT":1.93e-6,"MEAN_MOTION_DDOT":0},{"OBJECT_NAME":"STARLINK-3234","OBJECT_ID":"2022-001N","EPOCH":"2026-01-19T07:15:22.926816","MEAN_MOTION":15.0884237,"ECCENTRICITY":0.00014052,"INCLINATION":53.2187,"RA_OF_ASC_NODE":30.83,"ARG_OF_PERICENTER":86.6997,"MEAN_ANOMALY":273.4156,"EPHEMERIS_TYPE":0,"CLASSIFICATION_TYPE":"U","NORAD_CAT_ID":50815,"ELEMENT_SET_NO":999,"REV_AT_EPOCH":22295,"BSTAR":3.6837656e-5,"MEAN_MOTION_DOT":2.98e-6,"MEAN_MOTION_DDOT":0},{"OBJECT_NAME":"STARLINK-3342","OBJECT_ID":"2022-001P","EPOCH":"2026-01-19T10:28:53.637024","MEAN_MOTION":15.11008053,"ECCENTRICITY":0.00038589,"INCLINATION":53.2158,"RA_OF_ASC_NODE":29.8527,"ARG_OF_PERICENTER":46.7565,"MEAN_ANOMALY":313.375,"EPHEMERIS_TYPE":0,"CLASSIFICATION_TYPE":"U","NORAD_CAT_ID":50816,"ELEMENT_SET_NO":999,"REV_AT_EPOCH":22297,"BSTAR":0.00082793416,"MEAN_MOTION_DOT":0.00013721,"MEAN_MOTION_DDOT":0},{"OBJECT_NAME":"STARLINK-3341","OBJECT_ID":"2022-001Q","EPOCH":"2026-01-19T07:10:06.039264","MEAN_MOTION":15.0884049,"ECCENTRICITY":0.00012149,"INCLINATION":53.2187,"RA_OF_ASC_NODE":30.8473,"ARG_OF_PERICENTER":89.3044,"MEAN_ANOMALY":270.8087,"EPHEMERIS_TYPE":0,"CLASSIFICATION_TYPE":"U","NORAD_CAT_ID":50817,"ELEMENT_SET_NO":999,"REV_AT_EPOCH":22295,"BSTAR":0.00040308374,"MEAN_MOTION_DOT":6.133e-5,"MEAN_MOTION_DDOT":0},{"OBJECT_NAME":"STARLINK-3336","OBJECT_ID":"2022-001R","EPOCH":"2026-01-19T17:51:17.649792","MEAN_MOTION":15.08834423,"ECCENTRICITY":0.00014713,"INCLINATION":53.2191,"RA_OF_ASC_NODE":28.8473,"ARG_OF_PERICENTER":89.2881,"MEAN_ANOMALY":270.828,"EPHEMERIS_TYPE":0,"CLASSIFICATION_TYPE":"U","NORAD_CAT_ID":50818,"ELEMENT_SET_NO":999,"REV_AT_EPOCH":22301,"BSTAR":0.00011029418,"MEAN_MOTION_DOT":1.468e-5,"MEAN_MOTION_DDOT":0},{"OBJECT_NAME":"STARLINK-3327","OBJECT_ID":"2022-001S","EPOCH":"2026-01-19T22:48:02.693952","MEAN_MOTION":15.08845679,"ECCENTRICITY":0.00018695,"INCLINATION":53.2195,"RA_OF_ASC_NODE":27.9225,"ARG_OF_PERICENTER":87.0145,"MEAN_ANOMALY":273.1061,"EPHEMERIS_TYPE":0,"CLASSIFICATION_TYPE":"U","NORAD_CAT_ID":50819,"ELEMENT_SET_NO":999,"REV_AT_EPOCH":22305,"BSTAR":3.6413302e-5,"MEAN_MOTION_DOT":2.91e-6,"MEAN_MOTION_DDOT":0},{"OBJECT_NAME":"STARLINK-3339","OBJECT_ID":"2022-001T","EPOCH":"2026-01-19T23:56:58.102080","MEAN_MOTION":15.08834153,"ECCENTRICITY":0.00012188,"INCLINATION":53.2176,"RA_OF_ASC_NODE":27.7062,"ARG_OF_PERICENTER":101.5975,"MEAN_ANOMALY":258.5154,"EPHEMERIS_TYPE":0,"CLASSIFICATION_TYPE":"U","NORAD_CAT_ID":50820,"ELEMENT_SET_NO":999,"REV_AT_EPOCH":22305,"BSTAR":0.00031078148,"MEAN_MOTION_DOT":4.661e-5,"MEAN_MOTION_DDOT":0},{"OBJECT_NAME":"STARLINK-3346","OBJECT_ID":"2022-001U","EPOCH":"2026-01-19T07:25:57.750816","MEAN_MOTION":15.08846215,"ECCENTRICITY":0.00014545,"INCLINATION":53.2187,"RA_OF_ASC_NODE":30.6809,"ARG_OF_PERICENTER":85.5608,"MEAN_ANOMALY":274.5551,"EPHEMERIS_TYPE":0,"CLASSIFICATION_TYPE":"U","NORAD_CAT_ID":50821,"ELEMENT_SET_NO":999,"REV_AT_EPOCH":22295,"BSTAR":-4.0116477e-5,"MEAN_MOTION_DOT":-9.26e-6,"MEAN_MOTION_DDOT":0},{"OBJECT_NAME":"STARLINK-3343","OBJECT_ID":"2022-001V","EPOCH":"2026-01-19T17:24:47.326464","MEAN_MOTION":15.08844249,"ECCENTRICITY":0.00012946,"INCLINATION":53.2183,"RA_OF_ASC_NODE":28.9287,"ARG_OF_PERICENTER":90.943,"MEAN_ANOMALY":269.171,"EPHEMERIS_TYPE":0,"CLASSIFICATION_TYPE":"U","NORAD_CAT_ID":50822,"ELEMENT_SET_NO":999,"REV_AT_EPOCH":22301,"BSTAR":8.487329e-5,"MEAN_MOTION_DOT":1.063e-5,"MEAN_MOTION_DDOT":0},{"OBJECT_NAME":"STARLINK-3334","OBJECT_ID":"2022-001W","EPOCH":"2026-01-19T22:58:38.916768","MEAN_MOTION":15.08844182,"ECCENTRICITY":0.000147,"INCLINATION":53.2187,"RA_OF_ASC_NODE":27.8901,"ARG_OF_PERICENTER":88.0687,"MEAN_ANOMALY":272.0474,"EPHEMERIS_TYPE":0,"CLASSIFICATION_TYPE":"U","NORAD_CAT_ID":50823,"ELEMENT_SET_NO":999,"REV_AT_EPOCH":22305,"BSTAR":7.6929577e-5,"MEAN_MOTION_DOT":9.37e-6,"MEAN_MOTION_DDOT":0},{"OBJECT_NAME":"STARLINK-3332","OBJECT_ID":"2022-001Y","EPOCH":"2026-01-19T11:08:33.416160","MEAN_MOTION":15.08837623,"ECCENTRICITY":0.0001427,"INCLINATION":53.2195,"RA_OF_ASC_NODE":30.1027,"ARG_OF_PERICENTER":95.5407,"MEAN_ANOMALY":264.5748,"EPHEMERIS_TYPE":0,"CLASSIFICATION_TYPE":"U","NORAD_CAT_ID":50825,"ELEMENT_SET_NO":999,"REV_AT_EPOCH":22297,"BSTAR":4.1447892e-5,"MEAN_MOTION_DOT":3.72e-6,"MEAN_MOTION_DDOT":0},{"OBJECT_NAME":"STARLINK-3329","OBJECT_ID":"2022-001AA","EPOCH":"2026-01-20T00:07:32.590848","MEAN_MOTION":15.08836798,"ECCENTRICITY":0.00014238,"INCLINATION":53.2196,"RA_OF_ASC_NODE":27.6722,"ARG_OF_PERICENTER":90.2956,"MEAN_ANOMALY":269.82,"EPHEMERIS_TYPE":0,"CLASSIFICATION_TYPE":"U","NORAD_CAT_ID":50827,"ELEMENT_SET_NO":999,"REV_AT_EPOCH":22305,"BSTAR":2.2047143e-5,"MEAN_MOTION_DOT":6.3e-7,"MEAN_MOTION_DDOT":0},{"OBJECT_NAME":"STARLINK-3290","OBJECT_ID":"2022-001AB","EPOCH":"2026-01-19T07:53:50.604288","MEAN_MOTION":15.08835864,"ECCENTRICITY":0.00013221,"INCLINATION":53.2179,"RA_OF_ASC_NODE":30.5998,"ARG_OF_PERICENTER":92.5471,"MEAN_ANOMALY":267.5672,"EPHEMERIS_TYPE":0,"CLASSIFICATION_TYPE":"U","NORAD_CAT_ID":50828,"ELEMENT_SET_NO":999,"REV_AT_EPOCH":22280,"BSTAR":2.001016e-6,"MEAN_MOTION_DOT":-2.56e-6,"MEAN_MOTION_DDOT":0}]
