STARLINK-3232           
1 50809U 22001G   26019.39526851  .00000800  00000+0  68323-4 0  9997
2 50809  53.2194  20.4130 0001407  91.6505 268.4649 15.08843524223103
STARLINK-3338           
1 50812U 22001K   26019.68600950 -.00000099  00000+0  11886-4 0  9999
2 50812  53.2190  19.2119 0001367  90.7306 269.3843 15.08836581223145
STARLINK-3349           
1 50813U 22001L   26019.91400702  .00074139  00000+0  24303-2 0  9990
2 50813  53.2134 350.8721 0004864 121.7673 238.3803 15.30982904223579
STARLINK-3324           
1 50814U 22001M   26019.95371354  .00000193  00000+0  30188-4 0  9994
2 50814  53.2189  27.9071 0001451  88.5773 271.5386 15.08841550223054
STARLINK-3234           
1 50815U 22001N   26019.30234869  .00000298  00000+0  36838-4 0  9997
2 50815  53.2187  30.8300 0001405  86.6997 273.4156 15.08842370222952
STARLINK-3342           
1 50816U 22001P   26019.43673191  .00013721  00000+0  82793-3 0  9992
2 50816  53.2158  29.8527 0003858  46.7565 313.3750 15.11008053222974
STARLINK-3341           
1 50817U 22001Q   26019.29868101  .00006133  00000+0  40308-3 0  9999
2 50817  53.2187  30.8473 0001214  89.3044 270.8087 15.08840490222951
STARLINK-3336           
1 50818U 22001R   26019.74395428  .00001468  00000+0  11029-3 0  9991
2 50818  53.2191  28.8473 0001471  89.2881 270.8280 15.08834423223019
STARLINK-3327           
1 50819U 22001S   26019.95003118  .00000291  00000+0  36413-4 0  9995
2 50819  53.2195  27.9225 0001869  87.0145 273.1061 15.08845679223051
STARLINK-3339           
1 50820U 22001T   26019.99789470  .00004661  00000+0  31078-3 0  9999
2 50820  53.2176  27.7062 0001218 101.5975 258.5154 15.08834153223055
STARLINK-3346           
1 50821U 22001U   26019.30969619 -.00000926  00000+0 -40116-4 0  9996
2 50821  53.2187  30.6809 0001454  85.5608 274.5551 15.08846215222955
STARLINK-3343           
1 50822U 22001V   26019.72554776  .00001063  00000+0  84873-4 0  9996
2 50822  53.2183  28.9287 0001294  90.9430 269.1710 15.08844249223017
STARLINK-3334           
1 50823U 22001W   26019.95739487  .00000937  00000+0  76930-4 0  9990
2 50823  53.2187  27.8901 0001470  88.0687 272.0474 15.08844182223051
STARLINK-3332           
1 50825U 22001Y   26019.46427565  .00000372  00000+0  41448-4 0  9998
2 50825  53.2195  30.1027 0001427  95.5407 264.5748 15.08837623222975
STARLINK-3329           
1 50827U 22001AA  26020.00523832  .00000063  00000+0  22047-4 0  9997
2 50827  53.2196  27.6722 0001423  90.2956 269.8200 15.08836798223051
STARLINK-3290           
1 50828U 22001AB  26019.32905792 -.00000256  00000+0  20010-5 0  9994
2 50828  53.2179  30.5998 0001322  92.5471 267.5672 15.08835864222809
